0 PEGASUS DEB
1 24973U 94029ACF 13286.09163851  .00001360  00000-0  34519-3 0  7917
2 24973 082.0171 310.6068 0351936 230.0767 155.3423 14.19128252889645
0 PEGASUS DEB
1 24973U 94029ACF 13288.51437034  .00001882  00000-0  47866-3 0  7922
2 24973 082.0168 308.4173 0352017 222.9313 292.7750 14.19140845889989
0 PEGASUS DEB
1 24973U 94029ACF 13291.18668644  .00001424  00000-0  36083-3 0  7934
2 24973 082.0170 306.0020 0352121 215.0490 265.4302 14.19148296890364
0 PEGASUS DEB
1 24973U 94029ACF 13293.23458525  .00001817  00000-0  46110-3 0  7946
2 24973 082.0170 304.1509 0352280 209.0144 288.0328 14.19151605890659
0 PEGASUS DEB
1 24973U 94029ACF 13295.49443708  .00001657  00000-0  41958-3 0  7951
2 24973 082.0171 302.1088 0352402 202.3614 313.5103 14.19161029890975
